[{"OBJECT_NAME":"ESEO","OBJECT_ID":"2018-099AL","EPOCH":"2026-03-09T15:43:37.559712","MEAN_MOTION":15.03914518,"ECCENTRICITY":0.00110626,"INCLINATION":97.4113,"RA_OF_ASC_NODE":110.2601,"ARG_OF_PERICENTER":317.6,"MEAN_ANOMALY":42.4371,"EPHEMERIS_TYPE":0,"CLASSIFICATION_TYPE":"U","NORAD_CAT_ID":43792,"ELEMENT_SET_NO":999,"REV_AT_EPOCH":39684,"BSTAR":0.00020934561,"MEAN_MOTION_DOT":2.831e-5,"MEAN_MOTION_DDOT":0},{"OBJECT_NAME":"STARLINK-4406","OBJECT_ID":"2022-105V","EPOCH":"2026-03-09T16:11:57.725088","MEAN_MOTION":15.05688645,"ECCENTRICITY":0.00032736,"INCLINATION":97.5995,"RA_OF_ASC_NODE":311.2806,"ARG_OF_PERICENTER":72.4901,"MEAN_ANOMALY":287.6683,"EPHEMERIS_TYPE":0,"CLASSIFICATION_TYPE":"U","NORAD_CAT_ID":53667,"ELEMENT_SET_NO":999,"REV_AT_EPOCH":19330,"BSTAR":0.00038130822,"MEAN_MOTION_DOT":5.451e-5,"MEAN_MOTION_DDOT":0}]
